[
    {
        "CCSDS_OMM_VERS": "3.0",
        "COMMENT": "GENERATED VIA SPACE-TRACK.ORG API",
        "CREATION_DATE": "2025-03-01T17:52:32",
        "ORIGINATOR": "18 SPCS",
        "OBJECT_NAME": "GALILEO 22 (2C8)",
        "OBJECT_ID": "2017-079D",
        "CENTER_NAME": "EARTH",
        "REF_FRAME": "TEME",
        "TIME_SYSTEM": "UTC",
        "MEAN_ELEMENT_THEORY": "SGP4",
        "EPOCH": "2025-02-28T18:56:31.256160",
        "MEAN_MOTION": "1.70474322",
        "ECCENTRICITY": "0.00017290",
        "INCLINATION": "55.2347",
        "RA_OF_ASC_NODE": "234.5265",
        "ARG_OF_PERICENTER": "306.3819",
        "MEAN_ANOMALY": "53.5670",
        "EPHEMERIS_TYPE": "0",
        "CLASSIFICATION_TYPE": "U",
        "NORAD_CAT_ID": "43058",
        "ELEMENT_SET_NO": "999",
        "REV_AT_EPOCH": "4494",
        "BSTAR": "0.00000000000000",
        "MEAN_MOTION_DOT": "0.00000052",
        "MEAN_MOTION_DDOT": "0.0000000000000",
        "SEMIMAJOR_AXIS": "29600.283",
        "PERIOD": "844.702",
        "APOAPSIS": "23227.266",
        "PERIAPSIS": "23217.030",
        "OBJECT_TYPE": "PAYLOAD",
        "RCS_SIZE": "LARGE",
        "COUNTRY_CODE": "ESA",
        "LAUNCH_DATE": "2017-12-12",
        "SITE": "FRGUI",
        "DECAY_DATE": null,
        "FILE": "4656182",
        "GP_ID": "282003521",
        "TLE_LINE0": "0 GALILEO 22 (2C8)",
        "TLE_LINE1": "1 43058U 17079D   25059.78925065  .00000052  00000-0  00000-0 0  9994",
        "TLE_LINE2": "2 43058  55.2347 234.5265 0001729 306.3819  53.5670  1.70474322 44941"
    }
]